GLOBALSTAR M068         
1 32266U 07048D   24308.27743385 -.00000047  00000+0  31820-3 0  9992
2 32266  51.9882 270.8961 0001346  18.2074 130.3224 12.62805985789019
GLOBALSTAR M079         
1 37188U 10054A   24308.58721465 -.00000084  00000+0  11042-3 0  9995
2 37188  52.0020 106.5477 0001119 113.0507 332.3364 12.62266820647968
GLOBALSTAR M074         
1 37189U 10054B   24308.61151846 -.00000110  00000+0 -34893-4 0  9991
2 37189  51.9998 105.8276 0000708 103.9477 334.2010 12.62258629648572
GLOBALSTAR M076         
1 37190U 10054C   24308.63915863 -.00000087  00000+0  92059-4 0  9992
2 37190  52.0010 105.8994 0000810 125.2125 315.2136 12.62273287648293
GLOBALSTAR M077         
1 37191U 10054D   24308.61112564 -.00000084  00000+0  10802-3 0  9990
2 37191  52.0081  62.7743 0000679 110.9604 262.6267 12.62266302648662
GLOBALSTAR M075         
1 37192U 10054E   24308.27597463 -.00000081  00000+0  12571-3 0  9990
2 37192  51.9925 149.3881 0000827  86.7032  84.3288 12.62268597647314
GLOBALSTAR M073         
1 37193U 10054F   24308.63722240 -.00000110  00000+0 -35725-4 0  9995
2 37193  52.0071  61.9312 0000705 123.1424 250.0371 12.62271799649352
GLOBALSTAR M083         
1 37739U 11033A   24308.49197615 -.00000065  00000+0  21719-3 0  9990
2 37739  51.9886  11.4154 0000661 108.2570 264.8440 12.62267283618350
GLOBALSTAR M088         
1 37740U 11033B   24308.42163447 -.00000080  00000+0  13029-3 0  9993
2 37740  51.9735 277.3105 0000624  66.4282 107.7328 12.62264343613885
GLOBALSTAR M091         
1 37741U 11033C   24308.59287826 -.00000055  00000+0  27493-3 0  9992
2 37741  51.9993 239.9424 0000960  72.6961  98.3479 12.62269748614692
GLOBALSTAR M085         
1 37742U 11033D   24308.09920565 -.00000037  00000+0  37300-3 0  9990
2 37742  51.9854 192.6829 0001104  79.1048  68.7744 12.62268700615146
GLOBALSTAR M081         
1 37743U 11033E   24308.44736358 -.00000039  00000+0  36069-3 0  9998
2 37743  51.9948 194.2700 0000983  91.3360  79.5211 12.62262997615336
GLOBALSTAR M089         
1 37744U 11033F   24308.53581847 -.00000066  00000+0  21337-3 0  9992
2 37744  51.9903 148.2726 0000674 100.9098 290.8184 12.62271984616195
GLOBALSTAR M084         
1 38040U 11080A   24308.57453229 -.00000054  00000+0  28045-3 0  9990
2 38040  52.0036  15.3207 0000182 138.4155   9.8538 12.62269696594177
GLOBALSTAR M080         
1 38041U 11080B   24308.53958362 -.00000058  00000+0  25530-3 0  9995
2 38041  52.0088  16.9552 0000399 176.6961 292.2148 12.62267729594297
GLOBALSTAR M082         
1 38042U 11080C   24308.48215949 -.00000064  00000+0  22328-3 0  9996
2 38042  52.0093 332.5539 0000832  68.1427  79.9330 12.62268929594993
GLOBALSTAR M092         
1 38043U 11080D   24308.58443811 -.00000082  00000+0  12049-3 0  9998
2 38043  52.0093  62.6026 0000598 102.6396 270.5760 12.62268844593467
GLOBALSTAR M090         
1 38044U 11080E   24308.42961948 -.00000073  00000+0  17326-3 0  9991
2 38044  51.9900 326.8122 0000595  78.1276  71.4527 12.62269959595106
GLOBALSTAR M086         
1 38045U 11080F   24308.34668306 -.00000061  00000+0  24016-3 0  9996
2 38045  51.9911 327.5975 0000918 158.6754 214.4126 12.62269427595044
GLOBALSTAR M097         
1 39072U 13005A   24308.21220720 -.00000035  00000+0  38599-3 0  9998
2 39072  52.0046 242.3249 0000788  80.8935 279.2020 12.62266754542275
GLOBALSTAR M093         
1 39073U 13005B   24308.50220148 -.00000055  00000+0  27161-3 0  9990
2 39073  51.9808 235.1045 0000911  78.6079 281.4889 12.62266766542266
GLOBALSTAR M094         
1 39074U 13005C   24308.26469846 -.00000075  00000+0  15905-3 0  9999
2 39074  51.9932 149.9843 0001175  97.9516 262.1484 12.62264933543842
GLOBALSTAR M096         
1 39075U 13005D   24308.43622701 -.00000035  00000+0  38565-3 0  9993
2 39075  52.0063 197.8003 0001155  83.7999 276.2999 12.62264057542782
GLOBALSTAR M078         
1 39076U 13005E   24308.40939313 -.00000083  00000+0  11412-3 0  9996
2 39076  51.9873 282.6959 0001412  50.5165 309.5826 12.62265440541400
GLOBALSTAR M095         
1 39077U 13005F   24308.27791172 -.00000081  00000+0  12655-3 0  9999
2 39077  51.9797 280.4086 0001114  67.7782 292.3203 12.62267270541240
GLOBALSTAR M087         
1 52888U 22064A   24308.54072950 -.00000073  00000+0  10517-3 0  9991
2 52888  51.9754  82.4520 0009151   3.1548 356.9408 13.37592218116174
